IRIDIUM 57              
1 25273U 98019B   25016.52364638  .00000528  00000+0  17614-3 0  9993
2 25273  86.3961 208.7391 0001966  91.7265 268.4157 14.35686868403236
IRIDIUM 69              
1 25319U 98026A   25016.93531653  .00001157  00000+0  35633-3 0  9990
2 25319  86.4019 159.2902 0003520 131.7029 228.4472 14.40678299401522
IRIDIUM 71              
1 25320U 98026B   25016.82469060  .00000890  00000+0  27136-3 0  9994
2 25320  86.4019 154.0613 0001652 164.1723 195.9529 14.40908311401792
IRIDIUM 73              
1 25344U 98032C   25016.67887342  .00001118  00000+0  27556-3 0  9997
2 25344  86.4425 111.1779 0002559 107.2470 252.9015 14.51352882408586
IRIDIUM 82              
1 25467U 98051A   25016.97224115  .00030686  00000+0  11415-2 0  9998
2 25467  86.3732 183.4735 0103074 146.7326 214.0456 15.22414028400870
